start=new Date('2021-09-03T00:00:00.000Z').valueOf();
sats=[{"ELEMENT_SET_NO":"999","CENTER_NAME":"EARTH","EPHEMERIS_TYPE":"0","DECAY_DATE":null,"EPOCH":"2021-09-02T12:48:32.289984","MEAN_ANOMALY":"285.3750","PERIAPSIS":"545.996","APOAPSIS":"548.421","CLASSIFICATION_TYPE":"U","SEMIMAJOR_AXIS":"6925.343","TIME_SYSTEM":"UTC","LAUNCH_DATE":"2020-08-18","GP_ID":"183963684","OBJECT_ID":"2020-057N","RCS_SIZE":"LARGE","REV_AT_EPOCH":"5872","ECCENTRICITY":"0.00017510","MEAN_MOTION":"15.06401726","PERIOD":"95.592","MEAN_MOTION_DOT":"0.00002864","COUNTRY_CODE":"US","OBJECT_NAME":"STARLINK-1623","RA_OF_ASC_NODE":"119.9732","FILE":"3107560","BSTAR":"0.00021109000000","ARG_OF_PERICENTER":"74.7433","TLE_LINE2":"2 46129  53.0548 119.9732 0001751  74.7433 285.3750 15.06401726 58727","INCLINATION":"53.0548","OBJECT_TYPE":"PAYLOAD","REF_FRAME":"TEME","MEAN_MOTION_DDOT":"0.0000000000000","SITE":"AFETR","TLE_LINE1":"1 46129U 20057N   21245.53370706  .00002864  00000-0  21109-3 0  9997","NORAD_CAT_ID":"46129","MEAN_ELEMENT_THEORY":"SGP4"},{"ELEMENT_SET_NO":"999","CENTER_NAME":"EARTH","EPHEMERIS_TYPE":"0","DECAY_DATE":null,"MEAN_ANOMALY":"278.3949","EPOCH":"2021-09-02T16:47:22.895520","PERIAPSIS":"545.996","APOAPSIS":"548.455","SEMIMAJOR_AXIS":"6925.360","CLASSIFICATION_TYPE":"U","TIME_SYSTEM":"UTC","LAUNCH_DATE":"2020-08-18","GP_ID":"183989107","OBJECT_ID":"2020-057P","RCS_SIZE":"LARGE","REV_AT_EPOCH":"5933","ECCENTRICITY":"0.00017750","MEAN_MOTION":"15.06396112","PERIOD":"95.592","MEAN_MOTION_DOT":"0.00001453","COUNTRY_CODE":"US","OBJECT_NAME":"STARLINK-1624","RA_OF_ASC_NODE":"119.2295","FILE":"3107724","BSTAR":"0.00011647000000","ARG_OF_PERICENTER":"81.7241","TLE_LINE2":"2 46130  53.0541 119.2295 0001775  81.7241 278.3949 15.06396112 59332","INCLINATION":"53.0541","OBJECT_TYPE":"PAYLOAD","REF_FRAME":"TEME","MEAN_MOTION_DDOT":"0.0000000000000","SITE":"AFETR","TLE_LINE1":"1 46130U 20057P   21245.69957055  .00001453  00000-0  11647-3 0  9993","NORAD_CAT_ID":"46130","MEAN_ELEMENT_THEORY":"SGP4"},{"CENTER_NAME":"EARTH","ELEMENT_SET_NO":"999","EPOCH":"2021-09-02T17:05:56.706432","MEAN_ANOMALY":"291.1121","DECAY_DATE":null,"EPHEMERIS_TYPE":"0","SEMIMAJOR_AXIS":"6925.340","PERIAPSIS":"545.863","APOAPSIS":"548.546","CLASSIFICATION_TYPE":"U","TIME_SYSTEM":"UTC","LAUNCH_DATE":"2020-08-18","GP_ID":"183988857","RCS_SIZE":"LARGE","OBJECT_ID":"2020-057Q","REV_AT_EPOCH":"5906","ECCENTRICITY":"0.00019370","MEAN_MOTION_DOT":"0.00001342","MEAN_MOTION":"15.06402917","PERIOD":"95.592","COUNTRY_CODE":"US","OBJECT_NAME":"STARLINK-1625","RA_OF_ASC_NODE":"139.1720","OBJECT_TYPE":"PAYLOAD","TLE_LINE2":"2 46131  53.0548 139.1720 0001937  69.0075 291.1121 15.06402917 59064","INCLINATION":"53.0548","FILE":"3107724","ARG_OF_PERICENTER":"69.0075","BSTAR":"0.00010900000000","REF_FRAME":"TEME","MEAN_MOTION_DDOT":"0.0000000000000","SITE":"AFETR","MEAN_ELEMENT_THEORY":"SGP4","TLE_LINE1":"1 46131U 20057Q   21245.71246188  .00001342  00000-0  10900-3 0  9993","NORAD_CAT_ID":"46131"},{"TIME_SYSTEM":"UTC","PERIAPSIS":"546.072","SEMIMAJOR_AXIS":"6925.343","APOAPSIS":"548.344","CLASSIFICATION_TYPE":"U","MEAN_ANOMALY":"291.8118","EPOCH":"2021-09-02T11:39:30.924576","DECAY_DATE":null,"EPHEMERIS_TYPE":"0","CENTER_NAME":"EARTH","ELEMENT_SET_NO":"999","ECCENTRICITY":"0.00016400","GP_ID":"183960392","OBJECT_ID":"2020-057R","RCS_SIZE":"LARGE","REV_AT_EPOCH":"5875","LAUNCH_DATE":"2020-08-18","RA_OF_ASC_NODE":"160.1883","OBJECT_NAME":"STARLINK-1630","COUNTRY_CODE":"US","MEAN_MOTION_DOT":"0.00001951","MEAN_MOTION":"15.06401752","PERIOD":"95.592","MEAN_ELEMENT_THEORY":"SGP4","NORAD_CAT_ID":"46132","TLE_LINE1":"1 46132U 20057R   21245.48577459  .00001951  00000-0  14986-3 0  9990","SITE":"AFETR","MEAN_MOTION_DDOT":"0.0000000000000","REF_FRAME":"TEME","OBJECT_TYPE":"PAYLOAD","TLE_LINE2":"2 46132  53.0546 160.1883 0001640  68.3046 291.8118 15.06401752 58752","INCLINATION":"53.0546","BSTAR":"0.00014986000000","FILE":"3107538","ARG_OF_PERICENTER":"68.3046"},{"ECCENTRICITY":"0.00017180","OBJECT_ID":"2020-057S","GP_ID":"183988356","RCS_SIZE":"LARGE","REV_AT_EPOCH":"5932","LAUNCH_DATE":"2020-08-18","TIME_SYSTEM":"UTC","PERIAPSIS":"546.078","SEMIMAJOR_AXIS":"6925.402","APOAPSIS":"548.457","CLASSIFICATION_TYPE":"U","EPOCH":"2021-09-02T14:50:39.007392","MEAN_ANOMALY":"285.3036","DECAY_DATE":null,"EPHEMERIS_TYPE":"0","CENTER_NAME":"EARTH","ELEMENT_SET_NO":"999","MEAN_ELEMENT_THEORY":"SGP4","NORAD_CAT_ID":"46133","TLE_LINE1":"1 46133U 20057S   21245.61850703  .00001044  00000-0  89002-4 0  9997","SITE":"AFETR","MEAN_MOTION_DDOT":"0.0000000000000","REF_FRAME":"TEME","TLE_LINE2":"2 46133  53.0550 119.5965 0001718  74.8143 285.3036 15.06382413 59326","INCLINATION":"53.0550","OBJECT_TYPE":"PAYLOAD","BSTAR":"0.00008900200000","FILE":"3107724","ARG_OF_PERICENTER":"74.8143","RA_OF_ASC_NODE":"119.5965","OBJECT_NAME":"STARLINK-1637","COUNTRY_CODE":"US","MEAN_MOTION_DOT":"0.00001044","MEAN_MOTION":"15.06382413","PERIOD":"95.593"},{"BSTAR":"0.00011665000000","FILE":"3107538","ARG_OF_PERICENTER":"75.2434","TLE_LINE2":"2 46134  53.0552 120.7758 0001857  75.2434 284.8760 15.06390182 58032","INCLINATION":"53.0552","OBJECT_TYPE":"PAYLOAD","MEAN_MOTION_DDOT":"0.0000000000000","REF_FRAME":"TEME","SITE":"AFETR","TLE_LINE1":"1 46134U 20057T   21245.35678175  .00001456  00000-0  11665-3 0  9996","NORAD_CAT_ID":"46134","MEAN_ELEMENT_THEORY":"SGP4","MEAN_MOTION":"15.06390182","PERIOD":"95.593","MEAN_MOTION_DOT":"0.00001456","COUNTRY_CODE":"US","OBJECT_NAME":"STARLINK-1638","RA_OF_ASC_NODE":"120.7758","LAUNCH_DATE":"2020-08-18","RCS_SIZE":"LARGE","GP_ID":"183961394","OBJECT_ID":"2020-057T","REV_AT_EPOCH":"5803","ECCENTRICITY":"0.00018570","ELEMENT_SET_NO":"999","CENTER_NAME":"EARTH","DECAY_DATE":null,"EPHEMERIS_TYPE":"0","EPOCH":"2021-09-02T08:33:45.943200","MEAN_ANOMALY":"284.8760","CLASSIFICATION_TYPE":"U","PERIAPSIS":"545.958","APOAPSIS":"548.530","SEMIMAJOR_AXIS":"6925.379","TIME_SYSTEM":"UTC"},{"TLE_LINE2":"2 46135  53.0540 119.2097 0001876  75.7212 284.3985 15.06396547 58089","OBJECT_TYPE":"PAYLOAD","INCLINATION":"53.0540","ARG_OF_PERICENTER":"75.7212","FILE":"3107724","BSTAR":"0.00009677100000","MEAN_MOTION_DDOT":"0.0000000000000","REF_FRAME":"TEME","SITE":"AFETR","MEAN_ELEMENT_THEORY":"SGP4","NORAD_CAT_ID":"46135","TLE_LINE1":"1 46135U 20057U   21245.70325761  .00001160  00000-0  96771-4 0  9990","MEAN_MOTION_DOT":"0.00001160","PERIOD":"95.592","MEAN_MOTION":"15.06396547","OBJECT_NAME":"STARLINK-1639","COUNTRY_CODE":"US","RA_OF_ASC_NODE":"119.2097","LAUNCH_DATE":"2020-08-18","ECCENTRICITY":"0.00018760","GP_ID":"183989358","RCS_SIZE":"LARGE","REV_AT_EPOCH":"5808","OBJECT_ID":"2020-057U","CENTER_NAME":"EARTH","ELEMENT_SET_NO":"999","EPOCH":"2021-09-02T16:52:41.457504","MEAN_ANOMALY":"284.3985","EPHEMERIS_TYPE":"0","DECAY_DATE":null,"TIME_SYSTEM":"UTC","SEMIMAJOR_AXIS":"6925.359","PERIAPSIS":"545.925","APOAPSIS":"548.523","CLASSIFICATION_TYPE":"U"},{"REF_FRAME":"TEME","MEAN_MOTION_DDOT":"0.0000000000000","TLE_LINE2":"2 46136  53.0557 151.6793 0001759  70.0240 290.0938 15.06401353 57588","INCLINATION":"53.0557","OBJECT_TYPE":"PAYLOAD","ARG_OF_PERICENTER":"70.0240","FILE":"3107538","BSTAR":"0.00027600000000","MEAN_ELEMENT_THEORY":"SGP4","NORAD_CAT_ID":"46136","TLE_LINE1":"1 46136U 20057V   21245.15497123  .00003832  00000-0  27600-3 0  9994","SITE":"AFETR","MEAN_MOTION_DOT":"0.00003832","MEAN_MOTION":"15.06401353","PERIOD":"95.592","RA_OF_ASC_NODE":"151.6793","OBJECT_NAME":"STARLINK-1643","COUNTRY_CODE":"US","ECCENTRICITY":"0.00017590","REV_AT_EPOCH":"5758","GP_ID":"183960889","RCS_SIZE":"LARGE","OBJECT_ID":"2020-057V","LAUNCH_DATE":"2020-08-18","MEAN_ANOMALY":"290.0938","EPOCH":"2021-09-02T03:43:09.514272","EPHEMERIS_TYPE":"0","DECAY_DATE":null,"CENTER_NAME":"EARTH","ELEMENT_SET_NO":"999","TIME_SYSTEM":"UTC","APOAPSIS":"548.428","PERIAPSIS":"545.991","SEMIMAJOR_AXIS":"6925.344","CLASSIFICATION_TYPE":"U"},{"OBJECT_TYPE":"PAYLOAD","TLE_LINE2":"2 46137  53.0534 138.9059 0001975  66.7383 293.3814 15.06404804 57816","INCLINATION":"53.0534","ARG_OF_PERICENTER":"66.7383","FILE":"3107724","BSTAR":"0.00020777000000","REF_FRAME":"TEME","MEAN_MOTION_DDOT":"0.0000000000000","SITE":"AFETR","MEAN_ELEMENT_THEORY":"SGP4","NORAD_CAT_ID":"46137","TLE_LINE1":"1 46137U 20057W   21245.77144328  .00002815  00000-0  20777-3 0  9997","MEAN_MOTION_DOT":"0.00002815","PERIOD":"95.592","MEAN_MOTION":"15.06404804","OBJECT_NAME":"STARLINK-1586","COUNTRY_CODE":"US","RA_OF_ASC_NODE":"138.9059","LAUNCH_DATE":"2020-08-18","ECCENTRICITY":"0.00019750","GP_ID":"183987856","RCS_SIZE":"LARGE","OBJECT_ID":"2020-057W","REV_AT_EPOCH":"5781","CENTER_NAME":"EARTH","ELEMENT_SET_NO":"999","EPOCH":"2021-09-02T18:30:52.699392","MEAN_ANOMALY":"293.3814","EPHEMERIS_TYPE":"0","DECAY_DATE":null,"TIME_SYSTEM":"UTC","CLASSIFICATION_TYPE":"U","PERIAPSIS":"545.831","APOAPSIS":"548.567","SEMIMAJOR_AXIS":"6925.334"},{"MEAN_ELEMENT_THEORY":"SGP4","TLE_LINE1":"1 46138U 20057X   21245.70324907  .00000111  00000-0  26374-4 0  9991","NORAD_CAT_ID":"46138","SITE":"AFETR","REF_FRAME":"TEME","MEAN_MOTION_DDOT":"0.0000000000000","TLE_LINE2":"2 46138  53.0547 159.2089 0001889  65.9182 294.2005 15.06396860 57524","INCLINATION":"53.0547","OBJECT_TYPE":"PAYLOAD","BSTAR":"0.00002637400000","FILE":"3107724","ARG_OF_PERICENTER":"65.9182","RA_OF_ASC_NODE":"159.2089","COUNTRY_CODE":"US","OBJECT_NAME":"STARLINK-1590","MEAN_MOTION_DOT":"0.00000111","PERIOD":"95.592","MEAN_MOTION":"15.06396860","RCS_SIZE":"LARGE","GP_ID":"183989108","REV_AT_EPOCH":"5752","OBJECT_ID":"2020-057X","ECCENTRICITY":"0.00018890","LAUNCH_DATE":"2020-08-18","PERIAPSIS":"545.915","APOAPSIS":"548.531","CLASSIFICATION_TYPE":"U","SEMIMAJOR_AXIS":"6925.358","TIME_SYSTEM":"UTC","EPOCH":"2021-09-02T16:52:40.719648","MEAN_ANOMALY":"294.2005","DECAY_DATE":null,"EPHEMERIS_TYPE":"0","CENTER_NAME":"EARTH","ELEMENT_SET_NO":"999"}];
